[Satellite]
VERSION=1.1
NAME=DUMMY MASS 2
NICKNAME=DUMMY MASS 2
TLE1=1 24926U 97048B   22342.32104383  .00000351  00000+0  37661-4 0  9993
TLE2=2 24926  86.3377 202.4930 0008034 163.9180 196.2301 14.85251449368015
STATUS=2
